NORAD_CAT_ID,OBJECT_NAME,OBJECT_TYPE,EPOCH,MEAN_MOTION,ECCENTRICITY,INCLINATION,RA_OF_ASC_NODE,ARG_OF_PERICENTER,MEAN_ANOMALY,BSTAR,MEAN_MOTION_DOT,MEAN_MOTION_DDOT,TLE_LINE0,TLE_LINE1,TLE_LINE2,SEMIMAJOR_AXIS,PERIOD,APOGEE,PERIGEE,DECAYED
50177.0,STARLINK-3282,PAYLOAD,2024-03-10 20:37:44,15.08834757,4.42e-05,53.2165,280.9616,109.9743,250.1296,1.3758e-05,-6.9e-07,0.0,0 STARLINK-3282,1 50177U 21125X   24070.85953984 -.00000069  00000-0  13758-4 0  9999,2 50177  53.2165 280.9616 0000442 109.9743 250.1296 15.08834757126089,6917.896,95.438,540.067,539.456,0.0
50177.0,STARLINK-3282,PAYLOAD,2024-03-10 23:48:30,15.08834836,4.64e-05,53.2166,280.3661,123.6635,236.4401,1.0039e-05,-1.28e-06,0.0,0 STARLINK-3282,1 50177U 21125X   24070.99201997 -.00000128  00000-0  10039-4 0  9999,2 50177  53.2166 280.3661 0000464 123.6635 236.4401 15.08834836126590,6917.896,95.438,540.082,539.44,0.0
50177.0,STARLINK-3282,PAYLOAD,2024-03-12 20:19:18,15.08834369,0.0001378,53.2172,272.0424,90.5405,269.5745,7.758e-05,9.47e-06,0.0,0 STARLINK-3282,1 50177U 21125X   24072.84674447  .00000947  00000-0  77580-4 0  9991,2 50177  53.2172 272.0424 0001378  90.5405 269.5745 15.08834369126874,6917.898,95.438,540.716,538.809,0.0
50177.0,STARLINK-3282,PAYLOAD,2024-03-12 23:30:05,15.08835343,0.0001205,53.2163,271.4469,81.6293,278.4836,5.5506e-05,5.96e-06,0.0,0 STARLINK-3282,1 50177U 21125X   24072.97922482  .00000596  00000-0  55506-4 0  9994,2 50177  53.2163 271.4469 0001205  81.6293 278.4836 15.08835343126403,6917.895,95.438,540.593,538.926,0.0
50177.0,STARLINK-3282,PAYLOAD,2024-03-14 05:42:24,15.08841027,3.78e-05,53.2121,265.7959,261.9962,98.0987,5.0877e-05,5.22e-06,0.0,0 STARLINK-3282,1 50177U 21125X   24074.23777968  .00000522  00000-0  50877-4 0  9997,2 50177  53.2121 265.7959 0000378 261.9962  98.0987 15.08841027126592,6917.877,95.437,540.004,539.481,0.0
50177.0,STARLINK-3282,PAYLOAD,2024-03-14 21:36:16,15.08837976,0.0001317,53.2185,262.8245,82.5668,277.5474,-2.5017e-06,-3.28e-06,0.0,0 STARLINK-3282,1 50177U 21125X   24074.90018758 -.00000328  00000-0 -25017-5 0  9991,2 50177  53.2185 262.8245 0001317  82.5668 277.5474 15.08837976127181,6917.887,95.438,540.663,538.84,0.0
50177.0,STARLINK-3282,PAYLOAD,2024-03-16 11:45:31,15.088349,0.0001292,53.2178,255.6867,80.7932,279.3207,6.178e-05,6.95e-06,0.0,0 STARLINK-3282,1 50177U 21125X   24076.48994990  .00000695  00000-0  61780-4 0  9998,2 50177  53.2178 255.6867 0001292  80.7932 279.3207 15.08834900126939,6917.896,95.438,540.655,538.867,0.0
50177.0,STARLINK-3282,PAYLOAD,2024-03-16 18:07:04,15.08838109,0.0001138,53.2163,254.4974,91.8747,268.2375,4.6606e-05,4.54e-06,0.0,0 STARLINK-3282,1 50177U 21125X   24076.75490823  .00000454  00000-0  46606-4 0  9997,2 50177  53.2163 254.4974 0001138  91.8747 268.2375 15.08838109127462,6917.886,95.438,540.538,538.964,0.0
50177.0,STARLINK-3282,PAYLOAD,2024-03-17 14:47:04,15.08841545,0.0001156,53.2161,250.6312,99.9472,260.1651,6.9003e-05,8.11e-06,0.0,0 STARLINK-3282,1 50177U 21125X   24077.61602550  .00000811  00000-0  69003-4 0  9998,2 50177  53.2161 250.6312 0001156  99.9472 260.1651 15.08841545127598,6917.876,95.437,540.54,538.941,0.0
50177.0,STARLINK-3282,PAYLOAD,2024-03-17 17:57:50,15.08843025,0.000124,53.2165,250.0369,95.2277,264.8857,8.3526e-05,1.042e-05,0.0,0 STARLINK-3282,1 50177U 21125X   24077.74850426  .00001042  00000-0  83526-4 0  9992,2 50177  53.2165 250.0369 0001240  95.2277 264.8857 15.08843025127127,6917.871,95.437,540.594,538.878,0.0
50177.0,STARLINK-3282,PAYLOAD,2024-03-18 14:37:51,15.08839501,0.0001258,53.2156,246.1712,74.3193,285.7938,4.3013e-05,3.97e-06,0.0,0 STARLINK-3282,1 50177U 21125X   24078.60962824  .00000397  00000-0  43013-4 0  9993,2 50177  53.2156 246.1712 0001258  74.3193 285.7938 15.08839501127743,6917.882,95.438,540.617,538.877,0.0
50177.0,STARLINK-3282,PAYLOAD,2024-03-19 11:17:52,15.08839663,0.0001339,53.2152,242.3058,73.0052,287.1087,1.6062e-05,-3.2e-07,0.0,0 STARLINK-3282,1 50177U 21125X   24079.47074981 -.00000032  00000-0  16062-4 0  9998,2 50177  53.2152 242.3058 0001339  73.0052 287.1087 15.08839663127874,6917.881,95.438,540.673,538.82,0.0
50177.0,STARLINK-3282,PAYLOAD,2024-03-19 20:50:11,15.0884635,0.0001269,53.216,240.5189,95.333,264.7807,4.9249e-05,4.96e-06,0.0,0 STARLINK-3282,1 50177U 21125X   24079.86818304  .00000496  00000-0  49249-4 0  9992,2 50177  53.2160 240.5189 0001269  95.3330 264.7807 15.08846350127441,6917.861,95.437,540.604,538.848,0.0
50177.0,STARLINK-3282,PAYLOAD,2024-03-20 09:33:16,15.08804336,0.0001459,53.2172,238.1385,113.6192,246.4953,0.00044512,6.796e-05,0.0,0 STARLINK-3282,1 50177U 21125X   24080.39810985  .00006796  00000-0  44512-3 0  9995,2 50177  53.2172 238.1385 0001459 113.6192 246.4953 15.08804336127522,6917.989,95.44,540.864,538.845,0.0
50177.0,STARLINK-3282,PAYLOAD,2024-03-20 14:19:26,15.08835381,0.0001469,53.2163,237.2454,110.1219,249.9931,4.185e-05,3.78e-06,0.0,0 STARLINK-3282,1 50177U 21125X   24080.59683100  .00000378  00000-0  41850-4 0  9997,2 50177  53.2163 237.2454 0001469 110.1219 249.9931 15.08835381128048,6917.895,95.438,540.776,538.743,0.0
50177.0,STARLINK-3282,PAYLOAD,2024-03-20 15:54:49,15.0883424,0.0001408,53.2167,236.9481,107.3962,252.7184,3.4561e-05,2.62e-06,0.0,0 STARLINK-3282,1 50177U 21125X   24080.66307223  .00000262  00000-0  34561-4 0  9997,2 50177  53.2167 236.9481 0001408 107.3962 252.7184 15.08834240127565,6917.898,95.438,540.737,538.789,0.0
50177.0,STARLINK-3282,PAYLOAD,2024-03-21 14:10:13,15.08837586,0.0001465,53.2173,232.7856,111.9705,248.1443,1.197e-05,-9.7e-07,0.0,0 STARLINK-3282,1 50177U 21125X   24081.59043381 -.00000097  00000-0  11970-4 0  9998,2 50177  53.2173 232.7856 0001465 111.9705 248.1443 15.08837586128194,6917.888,95.438,540.766,538.739,0.0
50177.0,STARLINK-3282,PAYLOAD,2024-03-21 18:56:22,15.08846456,0.0001484,53.2173,231.8932,111.9573,248.1577,5.4211e-05,5.75e-06,0.0,0 STARLINK-3282,1 50177U 21125X   24081.78914708  .00000575  00000-0  54211-4 0  9994,2 50177  53.2173 231.8932 0001484 111.9573 248.1577 15.08846456127736,6917.861,95.437,540.752,538.699,0.0
50177.0,STARLINK-3282,PAYLOAD,2024-03-22 04:28:42,15.08780581,0.0001637,53.2159,230.1105,124.825,235.2896,0.0011684,0.00018326,0.0,0 STARLINK-3282,1 50177U 21125X   24082.18660592  .00018326  00000-0  11684-2 0  9996,2 50177  53.2159 230.1105 0001637 124.8250 235.2896 15.08780581127792,6918.062,95.441,541.06,538.795,0.0
50177.0,STARLINK-3282,PAYLOAD,2024-03-22 10:50:14,15.08827801,0.0001182,53.2165,228.9199,355.1593,4.9388,1.2437e-05,-9e-07,0.0,0 STARLINK-3282,1 50177U 21125X   24082.45156060 -.00000090  00000-0  12437-4 0  9995,2 50177  53.2165 228.9199 0001182 355.1593   4.9388 15.08827801127830,6917.918,95.438,540.6,538.965,0.0
50177.0,STARLINK-3282,PAYLOAD,2024-03-22 14:01:00,15.08833605,0.0001251,53.2165,228.3276,93.2503,266.8632,9.4119e-05,1.21e-05,0.0,0 STARLINK-3282,1 50177U 21125X   24082.58403515  .00001210  00000-0  94119-4 0  9990,2 50177  53.2165 228.3276 0001251  93.2503 266.8632 15.08833605128345,6917.9,95.438,540.63,538.9,0.0
50177.0,STARLINK-3282,PAYLOAD,2024-03-22 18:47:09,15.08842606,0.0001271,53.216,227.4356,97.2154,262.8983,0.00016771,2.382e-05,0.0,0 STARLINK-3282,1 50177U 21125X   24082.78274903  .00002382  00000-0  16771-3 0  9997,2 50177  53.2160 227.4356 0001271  97.2154 262.8983 15.08842606127881,6917.872,95.437,540.617,538.858,0.0
50177.0,STARLINK-3282,PAYLOAD,2024-03-23 13:51:47,15.08834997,0.000139,53.2161,223.8668,111.1495,248.9646,-5.3393e-05,-1.137e-05,0.0,0 STARLINK-3282,1 50177U 21125X   24083.57763557 -.00001137  00000-0 -53393-4 0  9994,2 50177  53.2161 223.8668 0001390 111.1495 248.9646 15.08834997128004,6917.896,95.438,540.722,538.799,0.0
50177.0,STARLINK-3282,PAYLOAD,2024-03-23 18:37:56,15.08840591,0.0001532,53.2161,222.9739,108.7668,251.3491,5.1347e-05,5.29e-06,0.0,0 STARLINK-3282,1 50177U 21125X   24083.77635401  .00000529  00000-0  51347-4 0  9991,2 50177  53.2161 222.9739 0001532 108.7668 251.3491 15.08840591128525,6917.879,95.438,540.803,538.684,0.0
50177.0,STARLINK-3282,PAYLOAD,2024-03-24 13:42:34,15.08842348,0.0001194,53.2163,219.4048,116.6978,243.4136,0.00024903,3.678e-05,0.0,0 STARLINK-3282,1 50177U 21125X   24084.57123490  .00003678  00000-0  24903-3 0  9995,2 50177  53.2163 219.4048 0001194 116.6978 243.4136 15.08842348128640,6917.873,95.437,540.564,538.912,0.0
50177.0,STARLINK-3282,PAYLOAD,2024-03-24 15:17:57,15.08843615,0.000115,53.2164,219.1079,106.5885,253.5234,0.000265,3.933e-05,0.0,0 STARLINK-3282,1 50177U 21125X   24084.63747522  .00003933  00000-0  26500-3 0  9999,2 50177  53.2164 219.1079 0001150 106.5885 253.5234 15.08843615128165,6917.869,95.437,540.53,538.939,0.0
50177.0,STARLINK-3282,PAYLOAD,2024-03-25 02:25:38,15.08865961,0.0001837,53.2177,217.0237,125.8262,234.2901,0.00047324,7.257e-05,0.0,0 STARLINK-3282,1 50177U 21125X   24085.10114508  .00007257  00000-0  47324-3 0  9994,2 50177  53.2177 217.0237 0001837 125.8262 234.2901 15.08865961128230,6917.801,95.436,540.937,538.395,0.0
50177.0,STARLINK-3282,PAYLOAD,2024-03-25 11:57:58,15.08850625,0.0002255,53.2164,215.2405,124.199,235.9217,0.00029064,4.342e-05,0.0,0 STARLINK-3282,1 50177U 21125X   24085.49859147  .00004342  00000-0  29064-3 0  9994,2 50177  53.2164 215.2405 0002255 124.1990 235.9217 15.08850625128293,6917.848,95.437,541.273,538.153,0.0
50177.0,STARLINK-3282,PAYLOAD,2024-03-25 15:08:44,15.08848053,0.0001932,53.2165,214.6486,101.3976,258.7234,0.00022524,3.299e-05,0.0,0 STARLINK-3282,1 50177U 21125X   24085.63107317  .00003299  00000-0  22524-3 0  9999,2 50177  53.2165 214.6486 0001932 101.3976 258.7234 15.08848053128809,6917.856,95.437,541.057,538.384,0.0
50177.0,STARLINK-3282,PAYLOAD,2024-03-26 13:24:10,15.08821768,0.0002932,53.217,210.4817,145.06,215.0585,-0.00016939,-2.982e-05,0.0,0 STARLINK-3282,1 50177U 21125X   24086.55845128 -.00002982  00000-0 -16939-3 0  9993,2 50177  53.2170 210.4817 0002932 145.0600 215.0585 15.08821768128457,6917.936,95.439,541.829,537.773,0.0
